ONEWEB-0272             
1 48990U 21060Z   23059.56574343 -.00000026  00000+0 -10123-3 0  9994
2 48990  87.8999 108.6470 0001498  93.7998 266.3304 13.16595476 81106
ONEWEB-0272             
1 48990U 21060Z   23059.56574343 -.00000026  00000+0 -10123-3 0  9994
2 48990  87.8999 108.6470 0001498  93.7998 266.3304 13.16595476 82400
ONEWEB-0272             
1 48990U 21060Z   23060.85769109 -.00000008  00000+0 -55781-4 0  9994
2 48990  87.8998 108.3891 0001512  93.7922 266.3382 13.16594862 81275
ONEWEB-0272             
1 48990U 21060Z   23061.16167883 -.00000023  00000+0 -93108-4 0  9992
2 48990  87.8996 108.3283 0001501  94.1784 265.9519 13.16594705 82619
ONEWEB-0272             
1 48990U 21060Z   23061.61765996 -.00000004  00000+0 -43551-4 0  9997
2 48990  87.8993 108.2368 0001506  94.1676 265.9627 13.16595193 81378
ONEWEB-0272             
1 48990U 21060Z   23062.14963838 -.00000073  00000+0 -22398-3 0  9992
2 48990  87.8993 108.1307 0001501  94.3397 265.7906 13.16595428 81444
ONEWEB-0272             
1 48990U 21060Z   23062.83361036  .00000028  00000+0  40477-4 0  9997
2 48990  87.8994 107.9946 0001495  94.1054 266.0248 13.16595473 81534
ONEWEB-0272             
1 48990U 21060Z   23062.83361036  .00000028  00000+0  40477-4 0  9997
2 48990  87.8994 107.9946 0001495  94.1054 266.0248 13.16595473 82838
